0 COSMOS 1911
1 18790U 88002C   13281.61243983  .00000008  00000-0 -14305-4 0  8089
2 18790 082.6085 324.7530 0007407 229.7275 248.6485 12.64282674187535
0 COSMOS 1911
1 18790U 88002C   13284.12467806  .00000024  00000-0  74696-4 0  8097
2 18790 082.6073 323.1501 0007613 223.5168 163.3882 12.64282532187857
0 COSMOS 1911
1 18790U 88002C   13286.18981477  .00000040  00000-0  16063-3 0  8103
2 18790 082.6075 321.8334 0007583 218.6034 202.9016 12.64282635188114
0 COSMOS 1911
1 18790U 88002C   13288.49561757  .00000012  00000-0  91624-5 0  8112
2 18790 082.6071 320.3624 0007671 213.1723 257.7567 12.64282833188400
0 COSMOS 1911
1 18790U 88002C   13290.56187822 -.00000005  00000-0 -86247-4 0  8129
2 18790 082.6069 319.0439 0007764 208.3414 302.3016 12.64283107188661
0 COSMOS 1911
1 18790U 88002C   13292.61296329  .00000010  00000-0 -32698-5 0  8138
2 18790 082.6069 317.7349 0007842 203.5681 277.7561 12.64283303188923
0 COSMOS 1911
1 18790U 88002C   13294.82461334  .00000008  00000-0 -13262-4 0  8146
2 18790 082.6069 316.3237 0007938 198.2924 264.1464 12.64283018189207
